{
"type": "FeatureCollection",
"name": "kathmandu_rivers",
"crs": { "type": "name", "properties": { "name": "urn:ogc:def:crs:OGC:1.3:CRS84" } },
"features": [
{ "type": "Feature", "properties": { "id": 1, "name": "Manohara River" }, "geometry": { "type": "MultiLineString", "coordinates": [ [ [ 85.411327668827738, 27.714040350216418 ], [ 85.411652964949582, 27.71262924864466 ], [ 85.411522846500844, 27.711899692373645 ], [ 85.409668658606364, 27.711592509326014 ], [ 85.407359056141331, 27.710882145215066 ], [ 85.405754261940302, 27.709269409520147 ], [ 85.405003196372149, 27.708190168989489 ], [ 85.404451524724422, 27.707296732590002 ], [ 85.403698021986031, 27.706867880519365 ], [ 85.402702321938918, 27.706784492420979 ], [ 85.401276048898424, 27.706462852015903 ], [ 85.399298104210203, 27.705962520612179 ], [ 85.398625333908072, 27.705486012380241 ], [ 85.39859842309599, 27.704723594880491 ], [ 85.398975174465178, 27.703818217180071 ], [ 85.398858281188154, 27.703299687470221 ], [ 85.398007525840725, 27.702779070970745 ], [ 85.397094214953043, 27.702867686720541 ], [ 85.396781437251789, 27.703366148972226 ], [ 85.396505631007372, 27.703788010696847 ], [ 85.394657994963808, 27.703936722267343 ], [ 85.394029124648881, 27.703596729221506 ], [ 85.392894342376778, 27.703614513608432 ], [ 85.392026513326002, 27.70329230399809 ], [ 85.391634590528895, 27.700689806884203 ], [ 85.390066899340397, 27.698384686180795 ], [ 85.390321968356844, 27.698021562085962 ], [ 85.390766761478133, 27.697393221442034 ], [ 85.390430827651997, 27.696203451866939 ], [ 85.388667175064953, 27.695360690571192 ], [ 85.38598394643742, 27.695637157748553 ], [ 85.384762034163558, 27.695087231195679 ], [ 85.381198919491865, 27.693636427492109 ], [ 85.378208277650884, 27.69348931352593 ], [ 85.375848993531889, 27.693165662102466 ], [ 85.373090957167435, 27.691223733410926 ], [ 85.371462718831822, 27.690488145340687 ], [ 85.370831361109822, 27.689811399938801 ], [ 85.370210073398241, 27.68928966906504 ], [ 85.36847672463368, 27.688924228801866 ], [ 85.366227498260642, 27.687645178248594 ], [ 85.364370338870046, 27.685872754858558 ], [ 85.36296715177491, 27.684008938406262 ], [ 85.361852856140572, 27.683186656329269 ], [ 85.361357613636386, 27.682455733729878 ], [ 85.360234778322607, 27.682038548387474 ], [ 85.35871928980616, 27.681917281032863 ], [ 85.357870251058998, 27.681804098047071 ], [ 85.356732730019104, 27.681580999802481 ], [ 85.355612765671239, 27.680950806600606 ], [ 85.355636098261826, 27.679845376955225 ], [ 85.355612765671239, 27.678832917557706 ], [ 85.355227777926672, 27.678151051858737 ], [ 85.3551053609349, 27.677512453961455 ], [ 85.355641275639329, 27.676463348165719 ], [ 85.355387421305636, 27.675014566455687 ], [ 85.354089943600172, 27.672091965570953 ], [ 85.352510405523958, 27.670493244829117 ], [ 85.352284757227338, 27.668020177604596 ] ] ] } },
{ "type": "Feature", "properties": { "id": 2, "name": "Bagmati River" }, "geometry": { "type": "MultiLineString", "coordinates": [ [ [ 85.333433414193593, 27.678563970261653 ], [ 85.333431674525954, 27.678564591905563 ] ] ] } },
{ "type": "Feature", "properties": { "id": 3, "name": "Bagmati River" }, "geometry": { "type": "MultiLineString", "coordinates": [ [ [ 85.333431674525954, 27.678564591905563 ], [ 85.33304910189635, 27.678701298446228 ], [ 85.331726750169821, 27.679015476830426 ], [ 85.33051613999028, 27.680012219508399 ], [ 85.329343967370221, 27.681791675042589 ], [ 85.32814787285993, 27.684503170583572 ], [ 85.327238841032113, 27.685774160943275 ], [ 85.325698274354565, 27.686472709268948 ], [ 85.32419753247629, 27.686752479849098 ], [ 85.322104392488171, 27.686822422382143 ], [ 85.320699822768461, 27.687178822798284 ], [ 85.317118594982077, 27.688849034102244 ], [ 85.315895115026578, 27.689875975665831 ], [ 85.314393766518165, 27.690957865756886 ], [ 85.313402153762141, 27.691337697914896 ], [ 85.308973160952888, 27.692714184604057 ], [ 85.306128046366823, 27.693259580189491 ], [ 85.30451483706544, 27.69284404094298 ], [ 85.302285675121681, 27.691493527467866 ], [ 85.300995107680606, 27.688818422610925 ], [ 85.300201276241424, 27.685528733760933 ], [ 85.29941952777942, 27.684391465132375 ], [ 85.299184210177387, 27.680994663983359 ], [ 85.299184210177387, 27.680994663983359 ], [ 85.299060781944789, 27.679189808532488 ], [ 85.298574855594552, 27.678011104753725 ], [ 85.297624130126707, 27.676832388255878 ], [ 85.296060714912883, 27.67580333964483 ], [ 85.293504319766029, 27.674662019848018 ], [ 85.292426830902485, 27.673614240356795 ], [ 85.291666250528209, 27.672491608322506 ], [ 85.292004286250091, 27.670845060473376 ], [ 85.292912757252694, 27.669423021908731 ], [ 85.293757846557469, 27.669048798158027 ], [ 85.295870569819343, 27.668824263292439 ], [ 85.29654288599508, 27.668810387001248 ], [ 85.297355879805835, 27.66859437924192 ], [ 85.297843676092299, 27.667742344471986 ], [ 85.297843676092299, 27.666782297335015 ], [ 85.29667838496357, 27.665606228098568 ], [ 85.296217688470804, 27.664262133474548 ], [ 85.29638028723295, 27.663470069973751 ], [ 85.296711633674505, 27.662301654357147 ], [ 85.29698289227612, 27.661532840297951 ], [ 85.296928640555805, 27.660727982286268 ], [ 85.29611486475099, 27.661016290314915 ], [ 85.295222489767866, 27.660427348094956 ], [ 85.294388751189558, 27.660165315602249 ], [ 85.294012224089713, 27.659373259021542 ], [ 85.293608802196999, 27.658587152079345 ], [ 85.293642420688073, 27.658086899263921 ], [ 85.293790342048723, 27.657670020169167 ], [ 85.293812717706999, 27.657289814953302 ], [ 85.293618222263007, 27.656706737674899 ], [ 85.293373856192318, 27.656048563374551 ], [ 85.29310954187099, 27.655765856418391 ], [ 85.291160720218613, 27.653874901804908 ], [ 85.288994812737997, 27.652564070075218 ], [ 85.287495338328313, 27.651053555748529 ], [ 85.287038447147239, 27.650081398996754 ], [ 85.286700660677639, 27.648556838746238 ], [ 85.286734733614395, 27.647343706480289 ], [ 85.28749201524414, 27.646143293107389 ], [ 85.287624871670431, 27.644813408008574 ], [ 85.287452158316285, 27.644495645459056 ], [ 85.286814447470164, 27.644060191577211 ], [ 85.285220170354933, 27.644742794188449 ], [ 85.283285410947343, 27.645276740386336 ], [ 85.282557853517503, 27.645055769615251 ], [ 85.282371810993439, 27.643924779674009 ], [ 85.283666847717058, 27.640920151598642 ], [ 85.285640237010213, 27.638297863299435 ], [ 85.290178363608717, 27.635157408197419 ], [ 85.29216117784047, 27.634484660704047 ], [ 85.292903024157809, 27.634126714734595 ], [ 85.292915464548088, 27.631821435713409 ], [ 85.293227961990226, 27.629348161725247 ], [ 85.293790457386095, 27.628222249831655 ], [ 85.294394619107578, 27.627723891689563 ], [ 85.294936281340654, 27.627077868498969 ] ] ] } },
{ "type": "Feature", "properties": { "id": 4, "name": "Manohara Rive" }, "geometry": { "type": "MultiLineString", "coordinates": [ [ [ 85.352284526704068, 27.668020141001243 ], [ 85.349745407931664, 27.668167789264057 ], [ 85.348197759021303, 27.668657316009551 ], [ 85.346667758483534, 27.669588301651633 ], [ 85.345451187049008, 27.670815211455317 ], [ 85.344769063181076, 27.671363268236057 ], [ 85.34315325421511, 27.672314174850669 ], [ 85.342090554852632, 27.67282462563433 ], [ 85.341256005635742, 27.673356342664714 ], [ 85.340907776466096, 27.67360093162975 ], [ 85.340354288873485, 27.674374113318329 ], [ 85.33879004353841, 27.675359526983812 ], [ 85.337499944292986, 27.676002183281327 ], [ 85.335790562792837, 27.677373170747067 ], [ 85.334887493321062, 27.67804437708643 ], [ 85.333435515000716, 27.678563219570012 ], [ 85.333433414193593, 27.678563970261653 ] ] ] } },
{ "type": "Feature", "properties": { "id": 5, "name": "Rudramati River" }, "geometry": { "type": "MultiLineString", "coordinates": [ [ [ 85.32433529145078, 27.686726808660275 ], [ 85.324528595020539, 27.687005528508386 ], [ 85.324593599760831, 27.68710171698649 ], [ 85.324888502861086, 27.687641612747196 ], [ 85.325052841787766, 27.687764014585913 ], [ 85.325442015619416, 27.687762089386702 ], [ 85.325972509557516, 27.687735136594199 ], [ 85.326489320475488, 27.6877517759354 ], [ 85.326781980414523, 27.687699946259048 ], [ 85.327053355994394, 27.687511474501253 ], [ 85.327266199586433, 27.687341849641104 ], [ 85.327548217345864, 27.687398391290433 ], [ 85.3277983085665, 27.687987365063329 ], [ 85.328069684146371, 27.688623453169665 ], [ 85.328202711391398, 27.689042798116688 ], [ 85.32825333318219, 27.689611259200813 ], [ 85.328247072856101, 27.69001550206146 ], [ 85.328318990653969, 27.690494446254132 ], [ 85.328311278586384, 27.690767598317745 ], [ 85.328311278586384, 27.691057821636527 ], [ 85.328543881720151, 27.691771488354384 ], [ 85.328990712779458, 27.692521558082468 ], [ 85.329361906572288, 27.693400048979559 ], [ 85.329577980573134, 27.693747262629866 ], [ 85.329848046507152, 27.69419575603683 ], [ 85.329881798415926, 27.694287902383095 ], [ 85.329735540144569, 27.694502080076585 ], [ 85.329274264058085, 27.694743652087048 ], [ 85.329139256423005, 27.694838288399012 ], [ 85.329018034061875, 27.695079479145459 ], [ 85.329025028966711, 27.695181672233183 ], [ 85.329042516228768, 27.695305542514269 ], [ 85.329136947444042, 27.69537676786225 ], [ 85.329864417546617, 27.695701926469134 ], [ 85.330654841792665, 27.695890827691169 ], [ 85.330962617605294, 27.696352240777024 ], [ 85.331485228320773, 27.696969380604514 ], [ 85.331794905045712, 27.697384387589349 ], [ 85.331827316501233, 27.697582661625084 ], [ 85.331626954776254, 27.697853983406095 ], [ 85.331270428765606, 27.697955728900073 ], [ 85.33061167255768, 27.698513943671621 ], [ 85.330423700900511, 27.698715741282708 ], [ 85.330348512237592, 27.69879791649166 ] ] ] } },
{ "type": "Feature", "properties": { "id": 6, "name": "Rudramati River" }, "geometry": { "type": "MultiLineString", "coordinates": [ [ [ 85.330347376858967, 27.698797740093678 ], [ 85.330360573917588, 27.699065824187183 ], [ 85.330502143788266, 27.69928070306252 ], [ 85.331057963130334, 27.699816683980924 ], [ 85.331316486782612, 27.699892450783679 ], [ 85.332102065791133, 27.699806915979927 ], [ 85.333111974069979, 27.69989633273676 ], [ 85.333616928209423, 27.700008103579794 ], [ 85.334323864004631, 27.700477539870462 ], [ 85.335245405309109, 27.701315813938344 ], [ 85.335750359448554, 27.702120550985409 ], [ 85.336012304518775, 27.702680887572761 ], [ 85.33609303950918, 27.703009697330469 ], [ 85.336084966010162, 27.703595834006411 ], [ 85.336108379157338, 27.703831985438942 ], [ 85.336256326909776, 27.705128793029004 ], [ 85.336431402632485, 27.705821748293079 ], [ 85.33688291872663, 27.70844970913555 ], [ 85.337094274639526, 27.70973614252371 ], [ 85.337323243545185, 27.711560512952229 ], [ 85.337605051429051, 27.712090666158442 ], [ 85.337999618302504, 27.712723123117399 ], [ 85.338331947707729, 27.713653482642254 ], [ 85.338422173051171, 27.714701890062504 ], [ 85.338574924395516, 27.715189881489362 ], [ 85.339185478397241, 27.717156928483593 ], [ 85.339302885841491, 27.717513923594645 ], [ 85.339494935555933, 27.717946736088155 ], [ 85.339897673661213, 27.718443529432026 ], [ 85.340802183832096, 27.718911097570537 ], [ 85.341383183065943, 27.719209171212398 ], [ 85.341924568715669, 27.719355285445133 ], [ 85.342083023052183, 27.719659202422058 ], [ 85.342010398147949, 27.72007416461884 ], [ 85.341533670172296, 27.720437499608973 ], [ 85.341438142448624, 27.72058234264637 ], [ 85.341415247103455, 27.720663412889095 ], [ 85.341861706334939, 27.72118530113363 ], [ 85.342056316769188, 27.721413309776789 ], [ 85.34226809871231, 27.721818657298421 ], [ 85.342382575438336, 27.722127733771057 ], [ 85.342537119018473, 27.722203736048144 ], [ 85.343258414500085, 27.721910808483312 ], [ 85.343860843483824, 27.721868982620109 ], [ 85.345089326117332, 27.721879439087402 ], [ 85.345727192100114, 27.722057198878201 ], [ 85.345998875759463, 27.722893711649768 ], [ 85.346227286123778, 27.723801382615658 ], [ 85.346360413684039, 27.723915634309368 ], [ 85.34658949241016, 27.723970712391921 ], [ 85.347699851713557, 27.723960256125174 ], [ 85.348526715024576, 27.724535349306596 ], [ 85.349004621321015, 27.72494522164385 ], [ 85.349116288069084, 27.725265018410518 ], [ 85.348840405515077, 27.725986011315413 ], [ 85.348755013295985, 27.726474423154624 ], [ 85.348938934998628, 27.727148893049343 ], [ 85.349122856701314, 27.727451240268159 ], [ 85.34998369208877, 27.728553264957792 ], [ 85.350194985497851, 27.729272284676973 ], [ 85.350194985497851, 27.72993726979076 ], [ 85.349960215043311, 27.730436005963615 ], [ 85.349448899359032, 27.731278888659876 ], [ 85.34922873813936, 27.731478890166791 ], [ 85.349170800976296, 27.731786584076168 ], [ 85.349402549628579, 27.732227610498043 ], [ 85.349837078351598, 27.732345559122351 ] ] ] } },
{ "type": "Feature", "properties": { "id": 7, "name": "Tuchukha River" }, "geometry": { "type": "MultiLineString", "coordinates": [ [ [ 85.314307168093535, 27.691010464817335 ], [ 85.314818888772905, 27.691259675881593 ], [ 85.315560883758025, 27.69151643820128 ], [ 85.316439337590907, 27.69202240924022 ], [ 85.317036345050198, 27.692362239218607 ], [ 85.317121631830091, 27.692807792476408 ], [ 85.317667467221412, 27.693306205830222 ], [ 85.317842863479171, 27.693504736052759 ], [ 85.318146892263101, 27.694235422488578 ], [ 85.318371952531763, 27.694787804203248 ], [ 85.318765385231131, 27.695921030209988 ], [ 85.319818738484898, 27.69866108043966 ], [ 85.320440842592674, 27.700376511225528 ], [ 85.320506106766075, 27.70057115284984 ], [ 85.32129677997932, 27.702609801582419 ], [ 85.321422061281623, 27.702850933084996 ], [ 85.321737988043949, 27.703743115011356 ], [ 85.321863269346252, 27.704066227747482 ], [ 85.32189595142512, 27.704341113948843 ], [ 85.32199944467483, 27.704423097418697 ], [ 85.322250007279422, 27.705059672853135 ], [ 85.322260901305725, 27.70524292872912 ], [ 85.32213927816133, 27.705567843130062 ], [ 85.322078527024416, 27.705761472287811 ], [ 85.321997525508507, 27.706155900990645 ], [ 85.321920574068429, 27.706525228392422 ], [ 85.321851722779911, 27.70677622688396 ], [ 85.321758950703284, 27.707035168826518 ], [ 85.321703018644612, 27.707190265007615 ], [ 85.321703018644612, 27.707190265007615 ], [ 85.321681912207424, 27.707313594343649 ], [ 85.321583401908057, 27.707822415793917 ], [ 85.32174759827231, 27.70811315139138 ], [ 85.321686024635724, 27.708615879867132 ], [ 85.321720232211618, 27.708749132809633 ], [ 85.321679183120551, 27.709124662953716 ], [ 85.321651480516039, 27.709170766455657 ], [ 85.321656909938412, 27.70958172420292 ], [ 85.321680125406402, 27.709769270371034 ], [ 85.321799798138684, 27.710008865552112 ], [ 85.321878994590222, 27.710271791240412 ], [ 85.321770099469347, 27.710385725508527 ], [ 85.321760199912902, 27.711156969732734 ], [ 85.321799798138684, 27.711770455562565 ], [ 85.321849295920899, 27.712454049994228 ], [ 85.321899271795147, 27.713615807524128 ], [ 85.321893929206738, 27.713781347018454 ] ] ] } },
{ "type": "Feature", "properties": { "id": 8, "name": "Icchumati River" }, "geometry": { "type": "MultiLineString", "coordinates": [ [ [ 85.321896664217704, 27.713794516380627 ], [ 85.324252105173983, 27.717005059404929 ], [ 85.324950013605488, 27.718086251932597 ], [ 85.325173799286929, 27.718604750552782 ], [ 85.325462010541358, 27.718875349950171 ], [ 85.325645417703228, 27.719370158540222 ], [ 85.325495561385708, 27.719597585467707 ], [ 85.325513940234941, 27.719820840207955 ], [ 85.325616044953037, 27.720004324530798 ], [ 85.325650953357993, 27.720052300610373 ], [ 85.32591218222953, 27.72015840252061 ], [ 85.326084285956682, 27.720261783769754 ], [ 85.326207217190344, 27.720411414351481 ], [ 85.326339368266559, 27.720637220113332 ], [ 85.326499397057489, 27.72076000449211 ], [ 85.327182297421388, 27.721168613998771 ], [ 85.32737634443032, 27.721280934026879 ], [ 85.327961029501836, 27.721362765706868 ], [ 85.328563469551611, 27.721354437963296 ], [ 85.328662566079288, 27.721206321620802 ], [ 85.329054176453752, 27.721063942520875 ], [ 85.329480752040169, 27.721187750444408 ], [ 85.32978825359713, 27.721587494317752 ], [ 85.330336356605414, 27.721849759343232 ], [ 85.330610408109578, 27.721757966656071 ], [ 85.330788171247391, 27.721928438727858 ], [ 85.331232579091946, 27.721954665176781 ], [ 85.331684393733937, 27.722249712292495 ], [ 85.332064563686188, 27.722263751106748 ], [ 85.333433117916073, 27.723369106248352 ], [ 85.334504560164149, 27.724857023444486 ], [ 85.334956728452312, 27.724970139125872 ], [ 85.3353892372497, 27.725518313457695 ], [ 85.335554452311001, 27.725852380516184 ], [ 85.335525115803549, 27.726115771951189 ], [ 85.335219177939734, 27.726423679441613 ], [ 85.334988676809473, 27.726586907156097 ], [ 85.335080877261532, 27.726883684192622 ], [ 85.335050840434718, 27.727094484113287 ], [ 85.335085336465468, 27.72762953950744 ], [ 85.335252415266453, 27.727954578662267 ], [ 85.335371991717992, 27.728497116252406 ], [ 85.335385234769973, 27.72871593137755 ], [ 85.335778036706756, 27.728613257411027 ], [ 85.33604297301936, 27.728567449733394 ], [ 85.336144773577445, 27.728845649503167 ], [ 85.336101145751684, 27.729368740975648 ], [ 85.336235995394944, 27.729670658401037 ], [ 85.33631531871454, 27.72990236190449 ], [ 85.336031999522049, 27.73011155420042 ], [ 85.335754485676944, 27.730207381545625 ], [ 85.335485801490918, 27.730310439163866 ], [ 85.335439528103322, 27.730375180438305 ], [ 85.335443851636612, 27.730461621546944 ], [ 85.335427586583933, 27.730503341623276 ] ] ] } },
{ "type": "Feature", "properties": { "id": 9, "name": "Bishnumati River" }, "geometry": { "type": "MultiLineString", "coordinates": [ [ [ 85.302369376373235, 27.691559793165606 ], [ 85.301291404887579, 27.692176647029836 ], [ 85.300558090951711, 27.692562990569655 ], [ 85.299745130166301, 27.693072870416014 ], [ 85.299617824613023, 27.693318810529849 ], [ 85.299837716023276, 27.694430657879703 ], [ 85.300440646387514, 27.695639586346864 ], [ 85.300627428543649, 27.695881609011646 ], [ 85.302052302905111, 27.697628428330393 ], [ 85.302473184041617, 27.698455038580558 ], [ 85.302872530301286, 27.70008958328339 ], [ 85.302119417184571, 27.702346424889051 ], [ 85.301945621849953, 27.705013541156102 ], [ 85.302215970148268, 27.70708222105819 ], [ 85.302620794741799, 27.708233427220392 ], [ 85.302654039119176, 27.709278263146082 ], [ 85.30188440153978, 27.714683362939844 ], [ 85.299815674487874, 27.717095412540235 ], [ 85.299210193399517, 27.718591749830512 ], [ 85.300563052382216, 27.722020426658652 ], [ 85.302793892900809, 27.723598262199769 ], [ 85.30450641682053, 27.725016829448499 ], [ 85.305920427396458, 27.726185047440431 ], [ 85.306564887904159, 27.727390611256581 ], [ 85.306754493173514, 27.729208788480783 ], [ 85.306501686147712, 27.732201721855908 ], [ 85.306671828413684, 27.733189631890525 ], [ 85.307015597340666, 27.73405771623764 ], [ 85.307177370953355, 27.735373253562649 ], [ 85.307329202782242, 27.736272622966172 ], [ 85.310235500636864, 27.739037569448222 ], [ 85.313201756426281, 27.741273967601291 ], [ 85.314813055867432, 27.743024160219637 ], [ 85.315462385037023, 27.744636634809961 ], [ 85.319785002098484, 27.745268697062176 ], [ 85.320499173612973, 27.744603368274035 ], [ 85.322002692590885, 27.744237435708321 ], [ 85.322340015799128, 27.744908309714518 ], [ 85.321701988795297, 27.747098330274568 ], [ 85.322280717269962, 27.748112342899585 ], [ 85.32267931079511, 27.748397261203223 ], [ 85.3228326159971, 27.748926393218134 ], [ 85.323084543758085, 27.74997632233541 ], [ 85.322755011956417, 27.750656794022174 ], [ 85.322817779918637, 27.751337261456911 ], [ 85.323368335735694, 27.752513152052561 ], [ 85.325145076693062, 27.753557290694797 ], [ 85.325811354552073, 27.753274760050264 ], [ 85.326699725030778, 27.753176488349897 ], [ 85.327213314213765, 27.753864388389967 ], [ 85.327143910270109, 27.755682389003759 ], [ 85.328207163374458, 27.756915890775527 ] ] ] } },
{ "type": "Feature", "properties": { "id": 10, "name": "Bagmati River" }, "geometry": { "type": "MultiLineString", "coordinates": [ [ [ 85.333402382831594, 27.678560098636385 ], [ 85.334755484041693, 27.679167666646855 ], [ 85.336299162887045, 27.679387065375675 ], [ 85.337385455407855, 27.681479769562419 ], [ 85.338738556617983, 27.682610488203462 ], [ 85.340053542301035, 27.682846756291603 ], [ 85.341006430477179, 27.681884804451109 ], [ 85.34256916708604, 27.683420548091949 ], [ 85.342912206829425, 27.683791823532765 ], [ 85.343217131045805, 27.684095593409133 ], [ 85.34338865091749, 27.685867567513682 ], [ 85.344284365803063, 27.686761981618069 ], [ 85.345141965161602, 27.687065743232239 ], [ 85.345427831614458, 27.687538259619089 ], [ 85.346094853337732, 27.687808268064934 ], [ 85.346780932824558, 27.688061400376515 ], [ 85.347409839020827, 27.687825143570635 ], [ 85.348095918507624, 27.688196404036081 ], [ 85.348324611669923, 27.688584538627481 ], [ 85.34840084272399, 27.689023297808514 ], [ 85.348059717189443, 27.690323573443504 ], [ 85.347905340872387, 27.690795191947345 ], [ 85.348629535886261, 27.690896442172431 ], [ 85.349125037737863, 27.690947067249756 ], [ 85.349546177030163, 27.691384178933031 ], [ 85.349925463805832, 27.691773940189655 ], [ 85.350897409745485, 27.691976438730471 ], [ 85.351316680542993, 27.692465808653377 ], [ 85.351793124631044, 27.693444541918051 ], [ 85.351964644502758, 27.693832657851782 ], [ 85.351450084887645, 27.694625760034022 ], [ 85.349620539589452, 27.69526698737274 ], [ 85.348286496142862, 27.695823839637185 ], [ 85.347390781257303, 27.696768794554806 ], [ 85.346628470716396, 27.697578749401391 ], [ 85.346437893081173, 27.698506815273717 ], [ 85.34721926138559, 27.699485494371729 ], [ 85.348153091798196, 27.700025451496582 ], [ 85.349429961954229, 27.701611560100602 ], [ 85.349849232751723, 27.702472098738916 ], [ 85.349868290515261, 27.703940060753592 ], [ 85.349677712880023, 27.704901818262069 ], [ 85.348733780763212, 27.707024780595599 ], [ 85.348476897298042, 27.708474626632778 ], [ 85.348444786864903, 27.709284826320122 ], [ 85.349070940311222, 27.710265586311895 ], [ 85.349664983324473, 27.711089986440289 ], [ 85.350210860687952, 27.711232123763768 ], [ 85.350212960766569, 27.711390071892854 ], [ 85.349714913835243, 27.711797075637659 ], [ 85.349545249496003, 27.711908516874367 ], [ 85.349381058199953, 27.712296137680529 ], [ 85.34951788427999, 27.712780661751168 ], [ 85.349895524260887, 27.713076220377324 ], [ 85.350295056414595, 27.713100446458728 ], [ 85.351182156509893, 27.712609910596317 ], [ 85.353507674735738, 27.711860122869751 ], [ 85.353919658432247, 27.711699642392407 ], [ 85.354018534519412, 27.711232788752206 ], [ 85.354529394303029, 27.710649218892126 ], [ 85.35508969213025, 27.710094824633313 ], [ 85.355188568217415, 27.70968632179758 ], [ 85.355930138871059, 27.709175691101716 ], [ 85.356506916046158, 27.709613374701654 ], [ 85.357182569308392, 27.711495394170679 ], [ 85.35741328017842, 27.712166494034495 ], [ 85.358039495397051, 27.712574987582222 ], [ 85.359720388878728, 27.712545809522393 ], [ 85.360775067141731, 27.712151904950922 ], [ 85.36125296822965, 27.71161210748706 ], [ 85.362093414970474, 27.711159842690428 ], [ 85.362752588884845, 27.711086896579875 ], [ 85.363411762799217, 27.71161210748706 ], [ 85.364367564975069, 27.71152457251149 ], [ 85.365405763890166, 27.711495394170679 ], [ 85.367257169854142, 27.710972720820241 ], [ 85.36827543014499, 27.710425398067997 ], [ 85.369402789752698, 27.711021013872418 ], [ 85.371730241846066, 27.711536138431953 ], [ 85.372857601453802, 27.711938577801433 ], [ 85.372803051795358, 27.712453698027755 ], [ 85.37383949530566, 27.714063433055291 ], [ 85.374639556962777, 27.715753629264757 ], [ 85.37496685491341, 27.716783831248499 ], [ 85.376566978227586, 27.716993089837288 ], [ 85.377694337835294, 27.717218444791545 ], [ 85.378321182388916, 27.716194403815386 ], [ 85.379331848993274, 27.716735934412164 ], [ 85.381645743587427, 27.718007343505992 ], [ 85.382496831254215, 27.721750850867128 ], [ 85.38379671166517, 27.726727350534624 ], [ 85.384217970906235, 27.728698316692775 ], [ 85.386293407499593, 27.73659068644605 ], [ 85.387338620555482, 27.738619450523089 ], [ 85.389328462105212, 27.739793556974128 ], [ 85.390515385134918, 27.739608172586198 ], [ 85.391886503886937, 27.738717997479185 ], [ 85.393284276898939, 27.738310302864637 ], [ 85.394006335222173, 27.738526757369662 ], [ 85.394999725595483, 27.737776080026062 ], [ 85.395437624757975, 27.737321739198961 ], [ 85.396973642796382, 27.735282447319683 ], [ 85.395996176771945, 27.734695371370403 ], [ 85.396205637405473, 27.733888906175885 ], [ 85.396135814775405, 27.733583008266539 ], [ 85.396973642796382, 27.733490310828699 ], [ 85.397638961080318, 27.734360616312795 ], [ 85.39790809524402, 27.734575009245521 ], [ 85.398984631898728, 27.735051436474766 ], [ 85.399657467307946, 27.736218674383228 ] ] ] } }
]
}
