{
"type": "FeatureCollection",
"name": "kathmandu_river_simple",
"crs": { "type": "name", "properties": { "name": "urn:ogc:def:crs:OGC:1.3:CRS84" } },
"features": [
{ "type": "Feature", "properties": { }, "geometry": { "type": "LineString", "coordinates": [ [ 85.347117, 27.6994109 ], [ 85.34707830587233, 27.699336468819745 ], [ 85.347000917768085, 27.699187606431327 ], [ 85.346884835989371, 27.698964312778973 ], [ 85.346730060989387, 27.69866658777897 ], [ 85.34664744935607, 27.698373543984818 ], [ 85.346637000495221, 27.698085181500677 ], [ 85.346698713837228, 27.697801500318604 ], [ 85.346832588837202, 27.697522500318609 ], [ 85.347016227038111, 27.697231906952556 ], [ 85.347249627991857, 27.696929720001204 ], [ 85.347532791221553, 27.696615939190234 ], [ 85.347865716221534, 27.696290564190207 ], [ 85.34831843046382, 27.695956860096491 ], [ 85.348890932811997, 27.69561482568044 ], [ 85.349583222091979, 27.695264459400025 ], [ 85.350395297092007, 27.694905759399898 ], [ 85.351020525408316, 27.694588656217341 ], [ 85.351458909254305, 27.694313152491318 ], [ 85.351710450456977, 27.694079250084766 ], [ 85.351775150456987, 27.693886950084767 ], [ 85.351779274791241, 27.69365833138227 ], [ 85.35172282382176, 27.693393393995521 ], [ 85.351605798033319, 27.693092137867872 ], [ 85.351428198033332, 27.692754562867865 ], [ 85.351094789136909, 27.692403783725581 ], [ 85.350605573014249, 27.692039799383355 ], [ 85.349960551476684, 27.691662608262252 ], [ 85.349159726476671, 27.691272208262099 ], [ 85.348575167503228, 27.690833380323674 ], [ 85.348206872552467, 27.690346127098941 ], [ 85.348054839099731, 27.689810450200206 ], [ 85.34811906409972, 27.689226350200212 ], [ 85.348013424570439, 27.688749338800605 ], [ 85.3477379225167, 27.688379415716689 ], [ 85.347292558965279, 27.688116579990403 ], [ 85.346677333965246, 27.68796082999037 ], [ 85.34609955214745, 27.687762029296181 ], [ 85.34555921394994, 27.68752017839395 ], [ 85.345056319721493, 27.687235277734732 ], [ 85.344590869721529, 27.686907327734691 ], [ 85.344192120038883, 27.686510008244582 ], [ 85.343860070632076, 27.686043319830773 ], [ 85.343594721204468, 27.685507262950146 ], [ 85.343396071204538, 27.684901837950132 ], [ 85.34312941980015, 27.684316351073999 ], [ 85.342794767973757, 27.683750801974863 ], [ 85.342392116638621, 27.68320519020228 ], [ 85.341921466638709, 27.682679515202221 ], [ 85.341452182723614, 27.682344452817244 ], [ 85.340984262530441, 27.68220000298038 ], [ 85.34051770365582, 27.682246165610028 ], [ 85.340052503655826, 27.682482940610051 ], [ 85.339608382839074, 27.682604477721558 ], [ 85.339185342685013, 27.682610777217509 ], [ 85.338783384520639, 27.682501839349914 ], [ 85.338402509520648, 27.682277664349897 ], [ 85.338028339492269, 27.681956257982701 ], [ 85.337660875321063, 27.68153762033074 ], [ 85.337300117842673, 27.68102175146997 ], [ 85.336946067842788, 27.680408651469925 ], [ 85.336488167826161, 27.679892790729642 ], [ 85.335926418172875, 27.679474168250479 ], [ 85.335260818709571, 27.67915278277199 ], [ 85.334491368709507, 27.678928632771914 ], [ 85.333751503788875, 27.678832519745271 ], [ 85.333041221272524, 27.678864444054312 ], [ 85.332360518668651, 27.679024406044519 ], [ 85.331709393668632, 27.679312406044584 ], [ 85.331047557195348, 27.679841262935273 ], [ 85.330375004550874, 27.68061097631151 ], [ 85.329691730807696, 27.681621545735297 ], [ 85.328997730808581, 27.682872970735655 ], [ 85.328376641396986, 27.683905281415157 ], [ 85.327828468640902, 27.68471847910326 ], [ 85.327353217668701, 27.685312564956028 ], [ 85.326950892668734, 27.685687539956067 ], [ 85.32626993858446, 27.686032110416093 ], [ 85.325310353601267, 27.686346272137865 ], [ 85.324072136460458, 27.686630019260601 ], [ 85.322555286459703, 27.68688334426092 ], [ 85.321052721772404, 27.687306144071172 ], [ 85.319564435464372, 27.687898418825629 ], [ 85.318090420689643, 27.688660168647417 ], [ 85.316630670690003, 27.689591393648534 ], [ 85.31514935165329, 27.690409488118231 ], [ 85.313646467860679, 27.691114451583406 ], [ 85.312122023708483, 27.691706283561913 ], [ 85.310576023707924, 27.692184983562555 ], [ 85.309259360068623, 27.692560818268923 ], [ 85.308172038545251, 27.692833794511376 ], [ 85.307314063649315, 27.693003917918929 ], [ 85.306685438649254, 27.693071192918946 ], [ 85.306000734632363, 27.69301484406833 ], [ 85.305259954036828, 27.692834870639107 ], [ 85.30446309966041, 27.692531271845816 ], [ 85.30361017466042, 27.692104046845632 ], [ 85.302782889821202, 27.691322270914565 ], [ 85.301981252163912, 27.69018594473193 ], [ 85.301205268017881, 27.688695068888848 ], [ 85.300454943020014, 27.686849643888234 ], [ 85.299859855581445, 27.685120723113371 ], [ 85.299419996662863, 27.683508308236465 ], [ 85.299135358224262, 27.682012400445743 ], [ 85.299005933224464, 27.680633000445724 ], [ 85.298807944532285, 27.679473894571316 ], [ 85.298541393539395, 27.678535082678096 ], [ 85.298206280742264, 27.677816564462642 ], [ 85.297802605742334, 27.677318339462591 ], [ 85.297229613827383, 27.676800818053032 ], [ 85.296487307798571, 27.676263998248949 ], [ 85.295575690670333, 27.675707877452243 ], [ 85.29449476567035, 27.675132452451859 ], [ 85.29361132094229, 27.674578097845458 ], [ 85.292925352788316, 27.674044817260512 ], [ 85.292436857785447, 27.673532613489353 ], [ 85.292145832785494, 27.673041488489332 ], [ 85.291998811158678, 27.672499738416835 ], [ 85.291995790907436, 27.67190736363235 ], [ 85.292136769657347, 27.671264364028076 ], [ 85.292421744657247, 27.670570739028051 ], [ 85.292887438755201, 27.66999959871367 ], [ 85.293533850901539, 27.669550941233961 ], [ 85.294360981273115, 27.669224764078752 ], [ 85.295368831273322, 27.669021064078635 ], [ 85.296178023714674, 27.668810384640768 ], [ 85.296788559386883, 27.668592729291397 ], [ 85.297200439203905, 27.66836810070517 ], [ 85.297413664203916, 27.668136500705167 ], [ 85.297574257484982, 27.667896137970036 ], [ 85.297682219340771, 27.667647012695813 ], [ 85.297737550093359, 27.667389125019589 ], [ 85.297740250093369, 27.667122475019589 ], [ 85.297652498134369, 27.666772156635375 ], [ 85.297474295247241, 27.666338169730736 ], [ 85.297205642875568, 27.665820514008018 ], [ 85.296846542875684, 27.665219189007981 ], [ 85.296621227727584, 27.664565301095237 ], [ 85.29652969527433, 27.663858850815657 ], [ 85.296571942992514, 27.663099838309012 ], [ 85.296747967992417, 27.662288263309005 ], [ 85.296711807516246, 27.661618608054361 ], [ 85.296463465462281, 27.661090872586392 ], [ 85.296002944107428, 27.66070505588905 ], [ 85.295330244107404, 27.660461155888985 ], [ 85.294757142638986, 27.660014429239926 ], [ 85.294283641451486, 27.659364877228882 ], [ 85.293909741138705, 27.658512500861363 ], [ 85.29363544113896, 27.657457300861314 ], [ 85.293059099720864, 27.65634328905475 ], [ 85.292180727112665, 27.655170462100607 ], [ 85.291000334618857, 27.653938814725386 ], [ 85.289517934620292, 27.65264833972374 ], [ 85.288364660695208, 27.651497299282692 ], [ 85.287540497887107, 27.650485701022959 ], [ 85.287045433850466, 27.649613550323792 ], [ 85.286879458850535, 27.648880850323785 ], [ 85.286805730542099, 27.648125594179007 ], [ 85.286824247033294, 27.647347781945705 ], [ 85.286935006328505, 27.646547413490495 ], [ 85.287138006328391, 27.645724488490476 ], [ 85.287250066303173, 27.645085081925128 ], [ 85.287271188571978, 27.6446291941608 ], [ 85.287201374500356, 27.644356825329641 ], [ 85.287040624500349, 27.644267975329647 ], [ 85.286693039223906, 27.644274228305889 ], [ 85.286158617815985, 27.644375582809893 ], [ 85.285437358480536, 27.644572036589697 ], [ 85.284529258480418, 27.644863586589828 ], [ 85.283798186239125, 27.645035870392423 ], [ 85.28324414484166, 27.645088890953506 ], [ 85.282867136236717, 27.645022650492606 ], [ 85.282667161236716, 27.644837150492602 ], [ 85.282566587750637, 27.644531844223931 ], [ 85.282565415209405, 27.644106731865261 ], [ 85.282663642383611, 27.643561813345912 ], [ 85.282861267383538, 27.642897088345894 ], [ 85.283167784280522, 27.64217133366315 ], [ 85.283583190378934, 27.641384548435841 ], [ 85.284107482629452, 27.640536731527543 ], [ 85.284740657629044, 27.639627881527332 ], [ 85.285667670179677, 27.638686361601074 ], [ 85.286888512193272, 27.637712165460545 ], [ 85.288403175162955, 27.636705284925348 ], [ 85.290211650162647, 27.63566570992343 ], [ 85.2915891584734, 27.634582225149234 ], [ 85.292535710382651, 27.633454843934864 ], [ 85.293051317435967, 27.632283575636812 ], [ 85.293135992435836, 27.631068425636805 ], [ 85.29330708153897, 27.630005188777012 ], [ 85.293564583216721, 27.629093864723142 ], [ 85.293908496630152, 27.628334453002118 ], [ 85.294338821630035, 27.627726953002057 ], [ 85.294514035701809, 27.627222165225216 ], [ 85.294434142874948, 27.626820090840923 ], [ 85.294099145812766, 27.626520729541269 ], [ 85.293509045812741, 27.626324079541234 ], [ 85.293114754546991, 27.625915628032509 ], [ 85.292916271882589, 27.625295376654496 ], [ 85.2929135954016, 27.624463326096159 ], [ 85.293106720401411, 27.623419476096132 ], [ 85.293145277257111, 27.622463544874982 ], [ 85.293029270214276, 27.621595532782504 ], [ 85.292758702794274, 27.620815439614873 ], [ 85.292333577794423, 27.620123264614794 ], [ 85.292053882100191, 27.619397876457224 ], [ 85.291919613000374, 27.61863927589382 ], [ 85.291930767544869, 27.617847463206253 ], [ 85.292087342544775, 27.617022438206245 ], [ 85.292299744293473, 27.61620426373571 ], [ 85.292567971608605, 27.615392939485993 ], [ 85.292892023332527, 27.614588465081901 ], [ 85.293271898332335, 27.61379084008184 ], [ 85.293518156741058, 27.613152070420185 ], [ 85.293630802069259, 27.612672157003967 ], [ 85.29360983665272, 27.612351100291264 ], [ 85.293455261652724, 27.612188900291258 ], [ 85.293190974743723, 27.612092276520549 ], [ 85.292816975787773, 27.612061228346214 ], [ 85.292333264262851, 27.612095754855414 ], [ 85.291739839262803, 27.612195854855436 ], [ 85.291244225804746, 27.612237878442421 ], [ 85.290846424729494, 27.612221826706627 ], [ 85.290546436574644, 27.612147700515962 ], [ 85.29034426157466, 27.612015500515959 ], [ 85.290211068254649, 27.611853812842451 ], [ 85.290146856398906, 27.611662637683327 ], [ 85.290151625685269, 27.61144197511814 ], [ 85.290225375685267, 27.611191825118137 ], [ 85.290382026109469, 27.61096811945605 ], [ 85.29062157659051, 27.610770857835604 ], [ 85.290944026887814, 27.610600039817047 ], [ 85.291349376887837, 27.610455664817042 ], [ 85.29179596743927, 27.610187690613159 ], [ 85.292283796707423, 27.609796116711692 ], [ 85.292812862558179, 27.609280942563338 ], [ 85.29338316255803, 27.608642167563222 ], [ 85.29380904070706, 27.607897915918819 ], [ 85.294090498513413, 27.60704818900523 ], [ 85.294227538323895, 27.606092987779203 ], [ 85.294220163323885, 27.605032312779208 ], [ 85.294023689655603, 27.604112170730918 ], [ 85.293638121554707, 27.603332561064402 ], [ 85.293063461821561, 27.602693482362874 ], [ 85.292299711821627, 27.6021949323627 ], [ 85.291769485809724, 27.601558136056422 ], [ 85.291472781441612, 27.600783095992799 ], [ 85.291409594651213, 27.599869813453566 ], [ 85.291579919651042, 27.598818288453547 ], [ 85.291443798009851, 27.598078897880143 ], [ 85.291001235153459, 27.597651641153547 ], [ 85.290252231259828, 27.597536515387159 ], [ 85.289196781259591, 27.597733515387283 ], [ 85.288343328218886, 27.597823023026542 ], [ 85.287691874932037, 27.59780504217262 ], [ 85.287242423042343, 27.597679575752544 ], [ 85.286994973042354, 27.597446625752532 ], [ 85.286753896824678, 27.597055150688597 ], [ 85.286519195263935, 27.596505150612501 ], [ 85.286290869140572, 27.595796625562283 ], [ 85.286068919140718, 27.594929575562258 ], [ 85.285858539494967, 27.594254031754968 ], [ 85.285659729091378, 27.593769994186975 ], [ 85.285472486881744, 27.59347746289227 ], [ 85.28529681188175, 27.593376437892264 ], [ 85.285101087433162, 27.59334009430388 ], [ 85.284885313219505, 27.593368432028448 ], [ 85.284649488847606, 27.593461450953694 ], [ 85.284393613847598, 27.593619150953693 ], [ 85.284241700639555, 27.593793381893821 ], [ 85.284193749624407, 27.593984144133692 ], [ 85.284249761309752, 27.594191437803381 ], [ 85.284409736309755, 27.594415262803384 ], [ 85.284460150039322, 27.594664844193428 ], [ 85.284401001772054, 27.594940182058028 ], [ 85.284232290641569, 27.595241276214921 ], [ 85.283954015641598, 27.595568126214928 ], [ 85.283512963611855, 27.595775679024062 ], [ 85.282909135192952, 27.59586393312334 ], [ 85.282142532094284, 27.595832886463086 ], [ 85.281213157094115, 27.595682536463016 ], [ 85.280635823826856, 27.595364151519849 ], [ 85.280410531546153, 27.594877735987961 ], [ 85.280537276392096, 27.594223291383198 ], [ 85.281016051391845, 27.593400816383085 ], [ 85.281350315183872, 27.592703577499737 ], [ 85.281540071729879, 27.592131575990656 ], [ 85.281585324006784, 27.591684812610318 ], [ 85.281486074006793, 27.591363287610317 ], [ 85.281291265675321, 27.590993375828713 ], [ 85.281000900227042, 27.590575076911161 ], [ 85.280614979136118, 27.590108390316416 ], [ 85.280133504136217, 27.589593315316353 ], [ 85.279824301187844, 27.589160776862066 ], [ 85.279687367556136, 27.58881077599586 ], [ 85.279722701306966, 27.588543313150783 ], [ 85.279930301306948, 27.58835838815078 ], [ 85.280360077983573, 27.588167417402502 ], [ 85.281012030227217, 27.587970398785121 ], [ 85.281886156916144, 27.58776732910728 ], [ 85.282982456916415, 27.58755820410714 ], [ 85.283839967583319, 27.587357186100867 ], [ 85.284458690162282, 27.587164279584368 ], [ 85.284838625863927, 27.586979487815853 ], [ 85.284979775863917, 27.586802812815854 ], [ 85.285064456691359, 27.586612443961691 ], [ 85.285092668597443, 27.586408381367534 ], [ 85.285064411879119, 27.586190625080469 ], [ 85.28497968687914, 27.585959175080475 ], [ 85.284656529851802, 27.585775253778845 ], [ 85.284094941682113, 27.585638859548695 ], [ 85.283294922704769, 27.585549989505083 ], [ 85.282256472704503, 27.585508639505054 ], [ 85.281398177510596, 27.585352222628959 ], [ 85.280720038825251, 27.585080742299894 ], [ 85.28022205724109, 27.58469420118238 ], [ 85.279904232241151, 27.584192601182345 ], [ 85.279513645194172, 27.583781783475413 ], [ 85.279050296042143, 27.583461747455694 ], [ 85.278514184361086, 27.583232492383026 ], [ 85.277905309361046, 27.583094017383001 ], [ 85.277202720186636, 27.582756731899252 ], [ 85.276406421478725, 27.58222063469384 ], [ 85.275516418841462, 27.58148572436928 ], [ 85.274532718841996, 27.580551999368762 ], [ 85.27372605175988, 27.579684683239108 ], [ 85.273096411868394, 27.578883778833355 ], [ 85.272643794113435, 27.578149288354172 ], [ 85.27236819411354, 27.577481213354147 ], [ 85.271942721930827, 27.576839734497764 ], [ 85.271367379980632, 27.576224850519623 ], [ 85.270642170488017, 27.575636559658715 ], [ 85.269767095488106, 27.575074859658471 ], [ 85.268985064161399, 27.574403495018355 ], [ 85.268296076935002, 27.573622467310035 ], [ 85.267700133672207, 27.57273177788759 ], [ 85.267197233672604, 27.571731427887439 ], [ 85.266625101376846, 27.571013710691734 ], [ 85.265983734105376, 27.570578625387974 ], [ 85.26527312799405, 27.570426170878033 ], [ 85.264493277993935, 27.570556345878082 ], [ 85.263775281981495, 27.570600475663813 ], [ 85.263119141662713, 27.57055856127743 ], [ 85.262524858446952, 27.570430603662139 ], [ 85.261992433446949, 27.570216603662114 ], [ 85.261397318615607, 27.570152248893496 ], [ 85.260739511701203, 27.570237538447291 ], [ 85.260019009910962, 27.570472471296615 ], [ 85.259235809910948, 27.570857046296748 ], [ 85.258588724486955, 27.571082918632847 ], [ 85.258077757216597, 27.571150090390912 ], [ 85.257702910485051, 27.571058563191986 ], [ 85.257464185485048, 27.570808338191977 ], [ 85.257179060876069, 27.570615007432238 ], [ 85.256847536494803, 27.570478570622264 ], [ 85.256469612031893, 27.570399027417043 ], [ 85.256045287031881, 27.570376377417041 ], [ 85.255600272848682, 27.570270390154469 ], [ 85.25513457054889, 27.570081065476177 ], [ 85.254648181282391, 27.569808403221312 ], [ 85.254141106282418, 27.569452403221266 ], [ 85.25359013888324, 27.568928910125635 ], [ 85.25299528211265, 27.568237923521096 ], [ 85.252356539356143, 27.567379442959826 ], [ 85.251673914356687, 27.566353467959548 ], [ 85.251184085065688, 27.565323322328311 ], [ 85.250887046008273, 27.564289007857059 ], [ 85.250782791713249, 27.563250525531313 ], [ 85.250871316713159, 27.562207875531303 ], [ 85.250743240686248, 27.56125170832178 ], [ 85.250398569131846, 27.560382023584975 ], [ 85.249837306577149, 27.559598819939211 ], [ 85.24905945657737, 27.558902094938958 ], [ 85.248437517269124, 27.558189017526665 ], [ 85.247971485763514, 27.557459589664983 ], [ 85.2476613590634, 27.556713812784661 ], [ 85.247507134063468, 27.555951687784649 ], [ 85.24730060887677, 27.555310838151776 ], [ 85.247041783871126, 27.554791263695407 ], [ 85.246730659049348, 27.554392964143734 ], [ 85.246367234049359, 27.55411593914372 ], [ 85.246184518775493, 27.553709601472292 ], [ 85.246182511747762, 27.55317395175808 ], [ 85.246361210229907, 27.552508989858143 ], [ 85.24672061022973, 27.55171471485809 ], [ 85.246772057241188, 27.550952990954748 ], [ 85.246515557708037, 27.550223818799743 ], [ 85.245951117646797, 27.549527196970431 ], [ 85.245078742646996, 27.548863121970133 ], [ 85.24418926794641, 27.548388997742499 ], [ 85.24328268933462, 27.548104823792254 ], [ 85.242359002367564, 27.548010599594459 ], [ 85.24141820236737, 27.548106324594503 ], [ 85.240553176298803, 27.547940003542017 ], [ 85.239763929829408, 27.547511638106975 ], [ 85.239050467443988, 27.546821229756898 ], [ 85.238412792444436, 27.545868779756677 ], [ 85.237824235106913, 27.545096622801857 ], [ 85.237284791701526, 27.544504759390925 ], [ 85.236794458931072, 27.544093189979268 ], [ 85.236353233931069, 27.543861914979253 ], [ 85.235870428153476, 27.543388946724917 ], [ 85.235346045147196, 27.542674284909499 ], [ 85.234780088915628, 27.541717929190614 ], [ 85.234172563916331, 27.540519879190349 ], [ 85.233609470170251, 27.539562028617116 ], [ 85.233090803181497, 27.538844377879141 ], [ 85.232616558944699, 27.538366927345315 ], [ 85.232186733944701, 27.538129677345282 ], [ 85.231875766376518, 27.537862107760507 ], [ 85.231683655571786, 27.537564219357286 ], [ 85.231610400682897, 27.537236012587197 ], [ 85.231656000682875, 27.536877487587194 ], [ 85.231815595021018, 27.536576038479581 ], [ 85.232089183061902, 27.536331664846319 ], [ 85.232476764535065, 27.536144366004024 ], [ 85.232978339535094, 27.536014141003999 ], [ 85.233646883655425, 27.535747908068167 ], [ 85.234482393301363, 27.535345664598459 ], [ 85.23548486364993, 27.534807407329545 ], [ 85.236654288649845, 27.534133132329025 ], [ 85.237681891343087, 27.533670083786848 ], [ 85.238567679383394, 27.533418265250425 ], [ 85.239311658750552, 27.533377679737782 ], [ 85.239913833750592, 27.533548329737823 ], [ 85.240480798328562, 27.533627854212639 ], [ 85.241012550990746, 27.533616253527015 ], [ 85.241509090406012, 27.533513528023789 ], [ 85.241970415406016, 27.533319678023776 ], [ 85.242428557891486, 27.533192727914749 ], [ 85.242883518717932, 27.53313267777115 ], [ 85.243335298722101, 27.533139527664758 ], [ 85.243783898722128, 27.533213277664764 ], [ 85.244202662227536, 27.533224589826126 ], [ 85.244591588503937, 27.533173464385332 ], [ 85.244950676913163, 27.533059901562769 ], [ 85.245279926913156, 27.532883901562755 ], [ 85.245528708242858, 27.532533819847497 ], [ 85.245697020368354, 27.532009656805016 ], [ 85.245784863476928, 27.531311412706533 ], [ 85.245792238476923, 27.530439087706537 ], [ 85.245831632216181, 27.529758531465625 ], [ 85.245903044517647, 27.529269743992213 ], [ 85.246006475480627, 27.528972725272997 ], [ 85.246141925480629, 27.528867475272996 ], [ 85.246332531850868, 27.528769213185537 ], [ 85.246578294494725, 27.528677938778735 ], [ 85.246879213340264, 27.528593651755997 ], [ 85.247235288340264, 27.528516351755993 ], [ 85.247650868505431, 27.528493165085507 ], [ 85.248125954442457, 27.528524091237895 ], [ 85.248660546932868, 27.528609129636958 ], [ 85.249254646932911, 27.528748279636993 ], [ 85.249771298325044, 27.528822459781242 ], [ 85.250210499998332, 27.528831670885896 ], [ 85.250572251116154, 27.528775913648637 ], [ 85.250856551116144, 27.528655188648628 ], [ 85.251020824914733, 27.528367075798176 ], [ 85.251065072602742, 27.52791157551211 ], [ 85.250989295336225, 27.527288687933432 ], [ 85.250793495336325, 27.526498412933414 ], [ 85.250668860111702, 27.525715637857939 ], [ 85.250615388121858, 27.524940362829309 ], [ 85.250633077861735, 27.524172587861838 ], [ 85.25072192786169, 27.52341231286184 ], [ 85.250749188893096, 27.522780144035639 ], [ 85.250714862234929, 27.522276081506416 ], [ 85.250618948716266, 27.521900125288781 ], [ 85.250461448716266, 27.521652275288776 ], [ 85.25012647078232, 27.521371215269124 ], [ 85.249614016631568, 27.521056944019815 ], [ 85.248924088339351, 27.520709459665444 ], [ 85.24805668833929, 27.520328759665283 ], [ 85.247181327756564, 27.520005547473797 ], [ 85.246298005332903, 27.519739822887868 ], [ 85.245406719780107, 27.519531585700392 ], [ 85.244507469779947, 27.519380835700318 ], [ 85.243685512197629, 27.519154702464995 ], [ 85.24294084813333, 27.518853187415296 ], [ 85.242273478369171, 27.51847629182603 ], [ 85.241683403369237, 27.518024016825947 ], [ 85.241219812426934, 27.517635746638653 ], [ 85.240882703368158, 27.517311482439954 ], [ 85.240672074472343, 27.517051225079172 ], [ 85.240587924472365, 27.51685497507917 ], [ 85.24060101483137, 27.516468256758333 ], [ 85.240711344344462, 27.51589107000791 ], [ 85.240918910754971, 27.515123414453093 ], [ 85.24122371075471, 27.514165289453043 ], [ 85.241164118146443, 27.513294611213347 ], [ 85.240740141551498, 27.512511379693354 ], [ 85.23995178801718, 27.511815591902856 ], [ 85.238799063017211, 27.511207241902387 ], [ 85.237905782594495, 27.510627173659451 ], [ 85.237271941708954, 27.510075391958797 ], [ 85.236897535803294, 27.509551900150576 ], [ 85.236782560803306, 27.50905670015057 ], [ 85.236607728768561, 27.50859945677265 ], [ 85.236373040302965, 27.508180169824545 ], [ 85.236078495889302, 27.507798839030301 ], [ 85.235724095889324, 27.507455464030283 ], [ 85.235415108841195, 27.507083794896193 ], [ 85.235151534489276, 27.506683831916163 ], [ 85.234933372509545, 27.506255575330211 ], [ 85.234760622509583, 27.505799025330205 ], [ 85.234796799111862, 27.505167720704687 ], [ 85.235041898397839, 27.504361661068916 ], [ 85.235495914474228, 27.503380844990623 ], [ 85.236158839473518, 27.502225269990333 ], [ 85.236720393437523, 27.501327661619793 ], [ 85.237180583065353, 27.500688021503152 ], [ 85.237539413542791, 27.500306350948598 ], [ 85.237796888542803, 27.500182650948599 ], [ 85.238112706201122, 27.500132101568919 ], [ 85.238486867093982, 27.5001547024392 ], [ 85.238919372024952, 27.500250453124323 ], [ 85.239410222024972, 27.500419353124347 ], [ 85.23991565445634, 27.50052877842144 ], [ 85.240435668566477, 27.500578728823054 ], [ 85.240970263550324, 27.500569204128354 ], [ 85.24151943855037, 27.500500204128354 ], [ 85.242015477905184, 27.500307340938068 ], [ 85.242458380154005, 27.499990615051328 ], [ 85.242848144172427, 27.499550026911507 ], [ 85.243184769172345, 27.498985576911476 ], [ 85.243708312230609, 27.498384249864152 ], [ 85.24441876986279, 27.497746043482032 ], [ 85.245316138252775, 27.497070954705993 ], [ 85.246400413252601, 27.496358979705523 ], [ 85.247135328335858, 27.495529811104525 ], [ 85.247520888544628, 27.49458345466017 ], [ 85.247557101274779, 27.493519913594405 ], [ 85.247243976275143, 27.492339188594325 ], [ 85.246856573661034, 27.491208714496889 ], [ 85.246394895308526, 27.490128490786571 ], [ 85.24585894289406, 27.489098516818473 ], [ 85.245248717894526, 27.488118791818263 ], [ 85.244886113244249, 27.487344590532459 ], [ 85.24477112186301, 27.486775914625305 ], [ 85.244903739441668, 27.486412764550266 ], [ 85.245283964441668, 27.486255139550263 ], [ 85.245662341070741, 27.485995039620764 ], [ 85.246038868247084, 27.48563246471733 ], [ 85.246413544882515, 27.485167414791697 ], [ 85.246786369882415, 27.48459988979166 ], [ 85.247090124298992, 27.484071332868606 ], [ 85.247324809449395, 27.483581744544797 ], [ 85.247490426508392, 27.483131125232127 ], [ 85.247586976508373, 27.482719475232116 ], [ 85.247610412805287, 27.482312693984902 ], [ 85.247560736209579, 27.481910781566068 ], [ 85.247437947519117, 27.481513737935032 ], [ 85.247242047519137, 27.481121562935027 ], [ 85.247151563005659, 27.480564969310795 ], [ 85.247166492633355, 27.479843957174928 ], [ 85.247286834088328, 27.478958526345345 ], [ 85.247512584088099, 27.477908676345304 ], [ 85.247784907610864, 27.477058670412202 ], [ 85.248103805345607, 27.476408508361136 ], [ 85.248469278424892, 27.475958189967645 ], [ 85.248881328424901, 27.475707714967616 ], [ 85.249190364726189, 27.475519857853943 ], [ 85.249396388356232, 27.475394619366895 ], [ 85.2494994, 27.475332 ] ] } },
{ "type": "Feature", "properties": { }, "geometry": { "type": "LineString", "coordinates": [ [ 85.3556541, 27.7816123 ], [ 85.355545472518159, 27.781440844311131 ], [ 85.355328218547243, 27.78109793270891 ], [ 85.355002340072815, 27.780583564744429 ], [ 85.354567840072974, 27.779897739744349 ], [ 85.354260581186182, 27.779243063965382 ], [ 85.354080560846739, 27.778619538155255 ], [ 85.354027776724365, 27.778027162718995 ], [ 85.354102226724351, 27.777465937719001 ], [ 85.35405546797152, 27.776930963108732 ], [ 85.35388750224007, 27.776422238846273 ], [ 85.35359833114569, 27.775939764562825 ], [ 85.35318795614576, 27.775483539562778 ], [ 85.352732951109658, 27.775120865306704 ], [ 85.352233315388105, 27.774851741336501 ], [ 85.35168904809187, 27.774676167137258 ], [ 85.351100148091831, 27.774594142137236 ], [ 85.350591960524071, 27.774480597189051 ], [ 85.350164485522711, 27.774335533190094 ], [ 85.349817723088435, 27.774158950889827 ], [ 85.349551673088442, 27.773950850889818 ], [ 85.34916319935283, 27.773830234070758 ], [ 85.348652301426412, 27.773797099381444 ], [ 85.348018978272322, 27.77385144541655 ], [ 85.34726322827224, 27.773993270416597 ], [ 85.346581167733547, 27.773943793725643 ], [ 85.345972800063777, 27.773703016582051 ], [ 85.345438127847871, 27.773270940057625 ], [ 85.344977152848003, 27.772647565057543 ], [ 85.344455322736238, 27.772129103699474 ], [ 85.343872636995499, 27.771715555288896 ], [ 85.343229094746164, 27.771406919031072 ], [ 85.342524694746103, 27.771203194031006 ], [ 85.341998396093516, 27.770927291731795 ], [ 85.341650198340545, 27.770579214147304 ], [ 85.341480100363626, 27.77015896256977 ], [ 85.34148810036362, 27.769666537569766 ], [ 85.341416311736594, 27.769226487835184 ], [ 85.341264735384513, 27.768838813288603 ], [ 85.341033371983428, 27.768503513703333 ], [ 85.340722221983441, 27.768220588703322 ], [ 85.340510241939128, 27.767921138286169 ], [ 85.340397431099078, 27.767605162875025 ], [ 85.340383788633346, 27.767272662675467 ], [ 85.340469313633335, 27.766923637675461 ], [ 85.340429037478586, 27.766626381877916 ], [ 85.340262961167326, 27.766380895221367 ], [ 85.33997108535516, 27.766187177284078 ], [ 85.339553410355151, 27.766045227284071 ], [ 85.339136552013116, 27.765774364705919 ], [ 85.338720511744398, 27.76537458960647 ], [ 85.338305290933434, 27.764845902035429 ], [ 85.337890890933565, 27.764188302035365 ], [ 85.337530079873233, 27.763525551531099 ], [ 85.337222856800537, 27.762857650900802 ], [ 85.336969220751868, 27.762184600459612 ], [ 85.33676917075195, 27.761506400459588 ], [ 85.336464300690992, 27.760907039161918 ], [ 85.336054611742767, 27.760386515938908 ], [ 85.33554010463142, 27.75994482990205 ], [ 85.334920779631432, 27.759581979901974 ], [ 85.334437256585502, 27.759190515751346 ], [ 85.334089534319105, 27.758770438823902 ], [ 85.333877611465468, 27.758321750083347 ], [ 85.333801486465489, 27.757844450083351 ], [ 85.333537409826931, 27.757444827386244 ], [ 85.333085383153929, 27.757122880992959 ], [ 85.332445407282933, 27.756878609100131 ], [ 85.331617482282823, 27.756712009100063 ], [ 85.330856753090856, 27.756606576367833 ], [ 85.330163218184836, 27.756562311951388 ], [ 85.329536876267724, 27.756579216808941 ], [ 85.328977726267695, 27.756657291808953 ], [ 85.328495356259225, 27.756648415676217 ], [ 85.328089767328422, 27.756552589263979 ], [ 85.327760960190659, 27.756369813278379 ], [ 85.327508935190679, 27.756100088278377 ], [ 85.327311923169447, 27.755753288027517 ], [ 85.327169923966437, 27.755329412745283 ], [ 85.327082937183178, 27.754828462572803 ], [ 85.327050962183193, 27.7542504375728 ], [ 85.326911905714638, 27.753827513272775 ], [ 85.326665768545723, 27.753559689405332 ], [ 85.326312550510906, 27.753446965404194 ], [ 85.325852250510891, 27.753489340404197 ], [ 85.32539557415447, 27.753457590293991 ], [ 85.324942522361297, 27.753351715149158 ], [ 85.324493096027979, 27.753171715042129 ], [ 85.324047296027985, 27.752917590042095 ], [ 85.323670833955859, 27.7526216330706 ], [ 85.323363709630343, 27.752283844683348 ], [ 85.323125922714198, 27.751904225323948 ], [ 85.322957472714222, 27.751482775323943 ], [ 85.322849336234157, 27.751076050232047 ], [ 85.322801512558854, 27.75068405016081 ], [ 85.322814001025975, 27.75030677514582 ], [ 85.322886801025959, 27.749944225145818 ], [ 85.3228622865809, 27.749530381606082 ], [ 85.32274045880007, 27.749065244516114 ], [ 85.322521319073942, 27.748548813670915 ], [ 85.322204869074014, 27.747981088670887 ], [ 85.322006559339442, 27.747417557080478 ], [ 85.321926387997252, 27.74685821932777 ], [ 85.321964353218519, 27.746303075539103 ], [ 85.32212045321846, 27.745752125539088 ], [ 85.322214739440582, 27.745300712855734 ], [ 85.322247212968676, 27.744948837679196 ], [ 85.32221787453868, 27.744696500097724 ], [ 85.322126724538691, 27.744543700097726 ], [ 85.321902288266273, 27.744488032764945 ], [ 85.321544565371568, 27.744529497435064 ], [ 85.321053554801921, 27.744668093023073 ], [ 85.320429254801894, 27.744903818023126 ], [ 85.319698339065837, 27.745037808167083 ], [ 85.318860809355854, 27.745070061842071 ], [ 85.317916668026882, 27.745000577210547 ], [ 85.31686591802665, 27.744829352210424 ], [ 85.316016874462775, 27.744556910032923 ], [ 85.315369537935098, 27.744183254420786 ], [ 85.314923907957336, 27.743708388180057 ], [ 85.314679982957401, 27.743132313180038 ], [ 85.314065322637362, 27.742326722707684 ], [ 85.313079939044584, 27.741291612274988 ], [ 85.311723848976229, 27.740026974597299 ], [ 85.309997073978465, 27.738532799594729 ], [ 85.308646262291447, 27.737157587162173 ], [ 85.307671394971862, 27.73590134756359 ], [ 85.307072455680199, 27.734764088097325 ], [ 85.306849430680373, 27.7337458130973 ], [ 85.306704427352145, 27.732830231695321 ], [ 85.30663744346073, 27.732017344070641 ], [ 85.306648477201932, 27.731307150285595 ], [ 85.306737527201904, 27.730699650285601 ], [ 85.306767456851873, 27.730049331497792 ], [ 85.306738267125169, 27.729356193994317 ], [ 85.306649959135143, 27.728620237776909 ], [ 85.30650253413522, 27.727841462776905 ], [ 85.306027243431416, 27.726964375795369 ], [ 85.305224096238803, 27.725988973823931 ], [ 85.304093103654026, 27.724915251597789 ], [ 85.302634278655091, 27.723743201596342 ], [ 85.30147104498991, 27.722663299209781 ], [ 85.300603390711402, 27.721675551416986 ], [ 85.300031305459115, 27.720779963363849 ], [ 85.299754780459253, 27.719976538363809 ], [ 85.299578439671919, 27.719267538106632 ], [ 85.299502280777503, 27.718652962895895 ], [ 85.299526301973302, 27.718132812836963 ], [ 85.299650501973289, 27.717707087836956 ], [ 85.299870791832362, 27.717243763842941 ], [ 85.300187170103584, 27.716742840323992 ], [ 85.300599635151301, 27.71620431653955 ], [ 85.301108185151179, 27.715628191539466 ], [ 85.301532322273104, 27.714912571818246 ], [ 85.301872046353324, 27.714057458112535 ], [ 85.302127357851674, 27.713062851025175 ], [ 85.302298257851476, 27.711928751025145 ], [ 85.302426430103367, 27.71107817566633 ], [ 85.302511876962811, 27.710511125256279 ], [ 85.3025546, 27.7102276 ] ] } },
{ "type": "Feature", "properties": { }, "geometry": { "type": "LineString", "coordinates": [ [ 85.3350581, 27.7268337 ], [ 85.335080600273713, 27.726752487545248 ], [ 85.335125600711677, 27.72659006261765 ], [ 85.335193101094887, 27.726346425180999 ], [ 85.335283101094873, 27.726021575180997 ], [ 85.335142794501436, 27.725569102135342 ], [ 85.334772184610969, 27.724989005465503 ], [ 85.334171276368835, 27.724281283506254 ], [ 85.333340076369211, 27.723445933505925 ], [ 85.332541025216244, 27.722749726619572 ], [ 85.331774119367296, 27.722192663284549 ], [ 85.331039355496969, 27.721774743918228 ], [ 85.330336730496938, 27.721495968918152 ], [ 85.329689782912723, 27.721299274160735 ], [ 85.329098510971235, 27.721184660356951 ], [ 85.328562913143216, 27.721152128158668 ], [ 85.32808298814318, 27.721201678158685 ], [ 85.327616117802449, 27.721162265398238 ], [ 85.327162303231802, 27.721033890057456 ], [ 85.326721545466555, 27.720816552306733 ], [ 85.32629384546658, 27.720510252306706 ], [ 85.325920770602792, 27.720140057976646 ], [ 85.325602320913603, 27.71970596975315 ], [ 85.325338496243631, 27.719207987997947 ], [ 85.325129296243688, 27.718646112997927 ], [ 85.324789752895384, 27.71797345834575 ], [ 85.324319869569536, 27.717190023201802 ], [ 85.323719650429254, 27.716295806387961 ], [ 85.322989100429822, 27.715290806387657 ], [ 85.322422456746352, 27.714163835548138 ], [ 85.322019715891201, 27.712914895687092 ], [ 85.321780873292028, 27.711543987984939 ], [ 85.321705923292143, 27.710051112984917 ], [ 85.321690450372017, 27.708761125501496 ], [ 85.321734452743584, 27.707674025566689 ], [ 85.321837929221104, 27.706789813147871 ], [ 85.322000879221036, 27.706108488147862 ], [ 85.321847845733345, 27.704873709901968 ], [ 85.321378840770308, 27.703085477652316 ], [ 85.320593885566666, 27.700743788772826 ], [ 85.319493010574362, 27.697848638770751 ], [ 85.318562485801465, 27.695576453773107 ], [ 85.317802286764874, 27.693927236633431 ], [ 85.317212394235938, 27.692900989670804 ], [ 85.316792794235994, 27.692497714670758 ], [ 85.316478096253405, 27.692195257660977 ], [ 85.31626829855901, 27.691993619292674 ], [ 85.3161634, 27.6918928 ] ] } },
{ "type": "Feature", "properties": { }, "geometry": { "type": "LineString", "coordinates": [ [ 85.3534577, 27.7363877 ], [ 85.353399949709342, 27.7363516001699 ], [ 85.353284449244256, 27.736279400441738 ], [ 85.353111198837325, 27.736171100679588 ], [ 85.352880198837312, 27.73602670067957 ], [ 85.352663179387207, 27.735766763075027 ], [ 85.352460141025958, 27.735391287944719 ], [ 85.35227108418421, 27.734900275353787 ], [ 85.35209600918428, 27.73429372535378 ], [ 85.35188347247221, 27.73383788189992 ], [ 85.35163347375061, 27.733532744830317 ], [ 85.351346012380262, 27.733378313929759 ], [ 85.351021087380246, 27.733374588929763 ], [ 85.350695423695456, 27.733280526393592 ], [ 85.350369022121455, 27.733096126347501 ], [ 85.350041883445286, 27.732821388814557 ], [ 85.349714008445318, 27.732456313814538 ], [ 85.349532073561917, 27.73203755728785 ], [ 85.349496077322868, 27.731565119740182 ], [ 85.349606017847663, 27.731039001195345 ], [ 85.349861892847599, 27.73045920119533 ], [ 85.349964782647845, 27.729845576030844 ], [ 85.349914689675288, 27.729198126142109 ], [ 85.349711616666227, 27.728516851473461 ], [ 85.349355566666375, 27.727801751473415 ], [ 85.34909941960828, 27.727154044712002 ], [ 85.348943173281398, 27.726573731665084 ], [ 85.348886825849192, 27.726060812606097 ], [ 85.348930375849193, 27.7256152876061 ], [ 85.348879887113995, 27.7252189503902 ], [ 85.348735360631451, 27.724871800904868 ], [ 85.348496797142801, 27.724573838892763 ], [ 85.348164197142822, 27.724325063892749 ], [ 85.347828066625766, 27.724132176458962 ], [ 85.347488405113324, 27.723995176548623 ], [ 85.347145212111727, 27.723914064116887 ], [ 85.346798487111727, 27.723888839116881 ], [ 85.346499730158286, 27.723756057430499 ], [ 85.34624894191856, 27.723515719393333 ], [ 85.346046122762445, 27.723167825273951 ], [ 85.345891272762486, 27.722712375273936 ], [ 85.345573391790907, 27.722379721287819 ], [ 85.345092480387137, 27.722169862226636 ], [ 85.344448538003022, 27.722082796370994 ], [ 85.343641563002905, 27.722118521370998 ], [ 85.342971948956063, 27.722048193722049 ], [ 85.342439697422009, 27.721871815489212 ], [ 85.342044809167732, 27.721589388288905 ], [ 85.341787284167751, 27.721200913288886 ], [ 85.341633248225605, 27.720837463065216 ], [ 85.341582700200235, 27.720499037917897 ], [ 85.341635639104339, 27.720185637920586 ], [ 85.341792064104325, 27.719897262920583 ], [ 85.341750748780683, 27.719587807667445 ], [ 85.34151169483296, 27.719257272055401 ], [ 85.341074904235043, 27.718905655140418 ], [ 85.340440379235048, 27.718532955140329 ], [ 85.339829498068212, 27.717844985810157 ], [ 85.33924226521826, 27.716841747583956 ], [ 85.338678684610542, 27.715523240824744 ], [ 85.338138759611766, 27.713889465824465 ], [ 85.337638741519768, 27.712089509152658 ], [ 85.337178630165596, 27.710123371131619 ], [ 85.336758424977035, 27.70799105202174 ], [ 85.336378124978708, 27.705692552021524 ], [ 85.335957928812817, 27.703829846161454 ], [ 85.335497834748182, 27.702402934284869 ], [ 85.334997839817603, 27.701411816080014 ], [ 85.33445793981771, 27.700856491079914 ], [ 85.33390129247897, 27.700430391483508 ], [ 85.333327896122796, 27.700133517033859 ], [ 85.332737748927286, 27.699965867455777 ], [ 85.332130848927235, 27.699927442455767 ], [ 85.331631023913303, 27.699862665960904 ], [ 85.331238273989243, 27.699771539138183 ], [ 85.330952599117055, 27.699654062898933 ], [ 85.330773999117056, 27.699510237898934 ], [ 85.330633593100771, 27.699366600266085 ], [ 85.330531380910969, 27.699223150110026 ], [ 85.33046736239254, 27.699079887508784 ], [ 85.330441537392545, 27.698936812508784 ], [ 85.33051135719073, 27.698752987975769 ], [ 85.330676821224827, 27.698528413737332 ], [ 85.330937928727792, 27.698263089412656 ], [ 85.331294678727772, 27.697957014412633 ], [ 85.331486426499794, 27.697625782629657 ], [ 85.331513173356612, 27.697269394805993 ], [ 85.331374920869834, 27.696887851103455 ], [ 85.331071670869861, 27.696481151103434 ], [ 85.330743408868088, 27.696135820146733 ], [ 85.330390134591639, 27.69585185805035 ], [ 85.330011847678747, 27.695629264612471 ], [ 85.329608547678745, 27.69546803961245 ], [ 85.329360205098737, 27.695286345183458 ], [ 85.329266819255594, 27.695084182130334 ], [ 85.329328389320878, 27.694861550729627 ], [ 85.329544914320863, 27.694618450729635 ], [ 85.329622230760933, 27.694275900719486 ], [ 85.329560339670607, 27.69383390096651 ], [ 85.329359242845072, 27.693292451347151 ], [ 85.329018942845195, 27.692651551347105 ], [ 85.328706511486089, 27.691907357369111 ], [ 85.328421948955821, 27.691059869583942 ], [ 85.328165255269582, 27.690109088134154 ], [ 85.327936430269787, 27.689055013134119 ], [ 85.327589718983219, 27.688266414736649 ], [ 85.327125121802396, 27.687743292143935 ], [ 85.326542637317772, 27.687485644152364 ], [ 85.325842262317693, 27.687493469152361 ], [ 85.325316981131465, 27.687499335574039 ], [ 85.324966793704405, 27.687503245413087 ], [ 85.3247917, 27.6875052 ] ] } },
{ "type": "Feature", "properties": { }, "geometry": { "type": "LineString", "coordinates": [ [ 85.417269, 27.7196084 ], [ 85.41714667359372, 27.71952550701063 ], [ 85.416902021343674, 27.719359720727635 ], [ 85.416535044374882, 27.719111040542479 ], [ 85.416045744374912, 27.718779465542426 ], [ 85.415659545804743, 27.718442095785935 ], [ 85.415376447724924, 27.718098932098584 ], [ 85.415196449175369, 27.717749975074032 ], [ 85.415119549175373, 27.717395225074021 ], [ 85.414829418347892, 27.716958559107219 ], [ 85.414326059912185, 27.716439975950546 ], [ 85.413609478086187, 27.715839473432204 ], [ 85.412679678086377, 27.715157048431873 ], [ 85.412003860498274, 27.714509944535756 ], [ 85.411582020005085, 27.713898165260403 ], [ 85.411414151853421, 27.713321712743362 ], [ 85.411500251853383, 27.71278058774336 ], [ 85.411250977151738, 27.712282336402776 ], [ 85.410666332156921, 27.711826957096765 ], [ 85.409746320616151, 27.711414445728202 ], [ 85.408490945615853, 27.711044795727876 ], [ 85.407404182782997, 27.710558615393275 ], [ 85.406486033048168, 27.709955908725437 ], [ 85.40573649627872, 27.709236679058172 ], [ 85.405155571279025, 27.708400929058005 ], [ 85.404397171689311, 27.707709659100267 ], [ 85.403461298167642, 27.707162866323635 ], [ 85.402347949974782, 27.70676054711636 ], [ 85.401057124974358, 27.706502697116115 ], [ 85.400053409996175, 27.706269777170338 ], [ 85.39933680220166, 27.706061793423473 ], [ 85.398907299237919, 27.705878750248822 ], [ 85.398764899237918, 27.705720650248814 ], [ 85.398686131158939, 27.705489406462618 ], [ 85.398670994725535, 27.705185018981513 ], [ 85.398719489404399, 27.70480748779605 ], [ 85.398831614404372, 27.704356812796053 ], [ 85.398888826045763, 27.703977206460419 ], [ 85.398891125045935, 27.703668668897233 ], [ 85.398838511904813, 27.70343120013807 ], [ 85.398730986904809, 27.703264800138061 ], [ 85.398565924366196, 27.703129525515987 ], [ 85.398343324378416, 27.703025376070752 ], [ 85.398063186935403, 27.702952351524978 ], [ 85.397725511935391, 27.702910451524968 ], [ 85.397458281109678, 27.702931894789312 ], [ 85.397261494012668, 27.703016681707737 ], [ 85.397135150442864, 27.703164812571028 ], [ 85.397079250442857, 27.703376287571022 ], [ 85.396965856764311, 27.703548400355285 ], [ 85.396794969275973, 27.703681150779023 ], [ 85.396566587972004, 27.703774538630366 ], [ 85.396280712971986, 27.703828563630367 ], [ 85.395986181461097, 27.703861326203874 ], [ 85.395682993606911, 27.703872826302792 ], [ 85.395371149586524, 27.70386306387768 ], [ 85.395050649586523, 27.703832038877671 ], [ 85.394778011917154, 27.703761882247004 ], [ 85.394553236759378, 27.703652594275855 ], [ 85.394376324192109, 27.703504175199818 ], [ 85.394247274192111, 27.703316625199811 ], [ 85.39405421850681, 27.703206875713018 ], [ 85.393797156944174, 27.703174926465881 ], [ 85.393476089035488, 27.70322077708196 ], [ 85.393091014035491, 27.703344427081969 ], [ 85.392757313044285, 27.703381364039622 ], [ 85.39247498689052, 27.703331588363572 ], [ 85.392244036151098, 27.703195100391863 ], [ 85.392064461151122, 27.702971900391866 ], [ 85.391917261258541, 27.70265577528253 ], [ 85.391802436519157, 27.702246725158954 ], [ 85.391719986802642, 27.701744750082916 ], [ 85.391669911802651, 27.701149850082899 ], [ 85.391539866249744, 27.700569856729874 ], [ 85.391329851384668, 27.700004769853471 ], [ 85.39103986839001, 27.699454589141876 ], [ 85.390669918390074, 27.698919314141833 ], [ 85.390470246730459, 27.698430757543864 ], [ 85.390440850873702, 27.697988919987235 ], [ 85.390581728748202, 27.697593801500233 ], [ 85.390892878748176, 27.697245401500204 ], [ 85.390994338085221, 27.696887014130017 ], [ 85.390886108757726, 27.696518639935242 ], [ 85.390568192929464, 27.696140278513241 ], [ 85.390040592929509, 27.695751928513172 ], [ 85.389411401748831, 27.695486268417259 ], [ 85.388680618135808, 27.695343296795379 ], [ 85.387848240146909, 27.695323011958511 ], [ 85.386914265146729, 27.69542541195856 ], [ 85.386008204459685, 27.695400492220017 ], [ 85.385130061188661, 27.69524825342307 ], [ 85.384279838219186, 27.694968696216161 ], [ 85.38345753821919, 27.694561821216002 ], [ 85.382443912429039, 27.694202028288309 ], [ 85.381238961677298, 27.693889313261554 ], [ 85.379842686339543, 27.693623671149009 ], [ 85.378255086338683, 27.69340509614868 ], [ 85.376721095753325, 27.693010849428191 ], [ 85.375240721178884, 27.692440933031911 ], [ 85.373813968652513, 27.691695348907682 ], [ 85.372440843652953, 27.69077409890668 ], [ 85.371312626790626, 27.690071079258143 ], [ 85.370429306524812, 27.689586295523853 ], [ 85.369790874238618, 27.689319752070563 ], [ 85.369397324238605, 27.68927145207056 ], [ 85.368940078298706, 27.689141021771508 ], [ 85.368419137691575, 27.68892846059169 ], [ 85.367834503970784, 27.688633767870968 ], [ 85.367186178970798, 27.688256942870876 ], [ 85.36637969012385, 27.687640322071186 ], [ 85.36541504531651, 27.686783902988715 ], [ 85.364292254453005, 27.685687682664245 ], [ 85.363011329454537, 27.68435165766298 ], [ 85.361738380711586, 27.683284526549929 ], [ 85.360473399046256, 27.682486289251244 ], [ 85.359216375291666, 27.681956945665885 ], [ 85.357967300291293, 27.681696495665648 ], [ 85.356972232466163, 27.681295701408679 ], [ 85.356231172467986, 27.68075456839329 ], [ 85.355744119045667, 27.680073100627148 ], [ 85.355511069045804, 27.679251300627126 ], [ 85.355364346626885, 27.678520794206044 ], [ 85.355303949783348, 27.677881581575463 ], [ 85.355329876936977, 27.677333662800656 ], [ 85.35544212693695, 27.676877037800654 ], [ 85.355491056944686, 27.676400956487939 ], [ 85.355476667740675, 27.675905418960387 ], [ 85.355398960176942, 27.675390425231768 ], [ 85.355257935176979, 27.674855975231761 ], [ 85.354995161926283, 27.674237395180146 ], [ 85.354610643047636, 27.673534684477733 ], [ 85.354104381730451, 27.672747842225654 ], [ 85.353476381730829, 27.67187686722546 ], [ 85.352964067661688, 27.671062078265702 ], [ 85.352567436158253, 27.670303476503399 ], [ 85.352286484222319, 27.669601062819623 ], [ 85.352121209222375, 27.668954837819616 ], [ 85.351741929610796, 27.668520910246311 ], [ 85.35114864595927, 27.668299278394429 ], [ 85.350341356343492, 27.66828993943999 ], [ 85.349320056343274, 27.668492889440106 ], [ 85.347746266457619, 27.669227340097503 ], [ 85.345619953188049, 27.670493270934902 ], [ 85.342941066922535, 27.672290654038939 ], [ 85.339709541929849, 27.674619454052738 ], [ 85.337190511613073, 27.676395996172054 ], [ 85.33538404792688, 27.677620322864712 ], [ 85.334290201467496, 27.678292464540146 ], [ 85.333909001467489, 27.678412439540153 ], [ 85.333623100953872, 27.678502420076093 ], [ 85.333432500366882, 27.678562406760047 ], [ 85.3333372, 27.6785924 ] ] } },
{ "type": "Feature", "properties": { }, "geometry": { "type": "LineString", "coordinates": [ [ 85.3996253, 27.7362061 ], [ 85.399570818141214, 27.736122268892014 ], [ 85.39946185466718, 27.735954606619213 ], [ 85.399298410064915, 27.735703113068016 ], [ 85.399080485064943, 27.735367788068004 ], [ 85.398767839844112, 27.735027564167893 ], [ 85.398360475359198, 27.734682440763436 ], [ 85.397858392602643, 27.734332417056841 ], [ 85.397261592602675, 27.733977492056759 ], [ 85.396797064420269, 27.733790978055655 ], [ 85.396464805210641, 27.733772876280877 ], [ 85.396264813328628, 27.733923187619791 ], [ 85.396197088328634, 27.73424191261979 ], [ 85.396195075188388, 27.734520868927053 ], [ 85.396258774428418, 27.734760056570316 ], [ 85.396388186428709, 27.73495947547795 ], [ 85.396583311428699, 27.735119125477965 ], [ 85.396639907137569, 27.735369688237128 ], [ 85.396557972702851, 27.735711163881938 ], [ 85.396337506591962, 27.736143552090009 ], [ 85.39597850659203, 27.736666852090043 ], [ 85.395704885883688, 27.737152320144812 ], [ 85.395516645886318, 27.737599956828614 ], [ 85.395413787848611, 27.738009762549556 ], [ 85.395396312848618, 27.73838173754956 ], [ 85.395239955293164, 27.738584807364127 ], [ 85.394944715208226, 27.738618971534322 ], [ 85.394510593886281, 27.738484229225012 ], [ 85.393937593886292, 27.73818057922497 ], [ 85.393416146113509, 27.737972153492489 ], [ 85.392946248910548, 27.737858952549303 ], [ 85.392527900878875, 27.737840976866988 ], [ 85.392161100878866, 27.737918226866988 ], [ 85.391778458752995, 27.738084770899583 ], [ 85.391379973477811, 27.738340608784419 ], [ 85.390965643940945, 27.73868574032911 ], [ 85.390535468940996, 27.739120165329162 ], [ 85.390081516099272, 27.739402440558795 ], [ 85.38960378720023, 27.739532565873908 ], [ 85.389102284193356, 27.739510541116971 ], [ 85.388577009193341, 27.739336366116945 ], [ 85.388109771627811, 27.739122196557922 ], [ 85.387700571624237, 27.738868033031999 ], [ 85.387349409184409, 27.738573876052122 ], [ 85.387056284184425, 27.738239726052107 ], [ 85.386776170000985, 27.737691988443846 ], [ 85.386509067902566, 27.736930663318908 ], [ 85.386254978938496, 27.735955750739734 ], [ 85.386013903938789, 27.734767250739687 ], [ 85.385756760690327, 27.733708482084179 ], [ 85.385483548951271, 27.732779444721828 ], [ 85.385194268341252, 27.73198013858379 ], [ 85.38488891834136, 27.731310563583747 ], [ 85.384506842745353, 27.730081220837331 ], [ 85.384048049019967, 27.728292109780572 ], [ 85.383512546529502, 27.725943229691598 ], [ 85.382900346533901, 27.723034579690911 ], [ 85.382230905854797, 27.720692187066135 ], [ 85.381504219774129, 27.718916051253707 ], [ 85.380720281333566, 27.717706171409638 ], [ 85.37987908133374, 27.717062546409384 ], [ 85.379187463585069, 27.716651550050003 ], [ 85.378645422018735, 27.716473184355412 ], [ 85.378252952418038, 27.716527450922797 ], [ 85.378010052418048, 27.716814350922814 ], [ 85.377664357351406, 27.717000345998574 ], [ 85.377215867718917, 27.717085435405664 ], [ 85.376664584586806, 27.717069618190529 ], [ 85.376010509586763, 27.716952893190498 ], [ 85.375379384820221, 27.716562161305486 ], [ 85.374771214601793, 27.715897422996903 ], [ 85.374186002790879, 27.714958678668999 ], [ 85.373623752791559, 27.713745928668772 ], [ 85.372925072968158, 27.712744188395181 ], [ 85.372089963449767, 27.711953455856868 ], [ 85.371118422745681, 27.711373728572891 ], [ 85.370010447745514, 27.711005003572623 ], [ 85.368999798219079, 27.710795550851536 ], [ 85.368086469135889, 27.7107453723434 ], [ 85.367270456287486, 27.710854469802225 ], [ 85.36655175628745, 27.711122844802311 ], [ 85.365814603451611, 27.711297857625755 ], [ 85.365058999615954, 27.71137950806154 ], [ 85.364284946698291, 27.711367795891782 ], [ 85.363492446698174, 27.711262720891732 ], [ 85.362784243100435, 27.711261231717859 ], [ 85.362160333823226, 27.711363329578052 ], [ 85.361620717255136, 27.71156901554221 ], [ 85.361165392255145, 27.711878290542248 ], [ 85.360669928618776, 27.712122266169782 ], [ 85.360134327010854, 27.712300942026818 ], [ 85.359558588235345, 27.712414317684836 ], [ 85.358942713235294, 27.712462392684845 ], [ 85.358356877501322, 27.712292885722992 ], [ 85.357801084307894, 27.711905797310223 ], [ 85.357275336501814, 27.711301127902903 ], [ 85.356779636502083, 27.710478877902787 ], [ 85.356267300212536, 27.710019572217739 ], [ 85.355738323011082, 27.709923210521232 ], [ 85.35519269974867, 27.71018979241153 ], [ 85.354630424748834, 27.710819317411648 ], [ 85.353964299387485, 27.711373119866028 ], [ 85.353194323615611, 27.7118511982836 ], [ 85.352320497819164, 27.712253550955641 ], [ 85.351342822819035, 27.712580175955807 ], [ 85.350582199905858, 27.712766883909801 ], [ 85.350038632945953, 27.712813678582858 ], [ 85.349712124169201, 27.71272056263857 ], [ 85.349602674169219, 27.712487537638562 ], [ 85.349569031119046, 27.712258156460262 ], [ 85.349611194537545, 27.712032419138492 ], [ 85.349729163965449, 27.711810325584139 ], [ 85.349922938965449, 27.711591875584148 ], [ 85.349957461231838, 27.711274432107373 ], [ 85.349832732001403, 27.710857995315997 ], [ 85.349548753389399, 27.710342564855672 ], [ 85.349105528389529, 27.709728139855599 ], [ 85.348873449026598, 27.708898352190403 ], [ 85.348852511546141, 27.707853202699493 ], [ 85.34904270968805, 27.706592691128218 ], [ 85.349444034687295, 27.705116816128079 ], [ 85.349575027341004, 27.703798703370413 ], [ 85.349435698236903, 27.702638354157468 ], [ 85.349026055676759, 27.701635768095553 ], [ 85.348346105677109, 27.700790943095321 ], [ 85.347836149940292, 27.700157322386847 ], [ 85.347496182669389, 27.699734907648757 ], [ 85.3473262, 27.6995237 ] ] } }
]
}
